start=new Date('2022-07-10T00:00:00.000Z').valueOf();
sats=[{"APOAPSIS":"548.090","REF_FRAME":"TEME","PERIAPSIS":"546.373","CENTER_NAME":"EARTH","REV_AT_EPOCH":"7844","ARG_OF_PERICENTER":"69.9635","GP_ID":"207784231","EPOCH":"2022-07-09T14:43:51.134592","INCLINATION":"53.0549","TLE_LINE2":"2 47637  53.0549 302.9715 0001239  69.9635 290.1487 15.06394136 78447","EPHEMERIS_TYPE":"0","PERIOD":"95.593","MEAN_MOTION_DOT":"-0.00003129","CLASSIFICATION_TYPE":"U","LAUNCH_DATE":"2021-02-16","SEMIMAJOR_AXIS":"6925.367","BSTAR":"-0.00019132000000","DECAY_DATE":null,"RA_OF_ASC_NODE":"302.9715","ELEMENT_SET_NO":"999","NORAD_CAT_ID":"47637","MEAN_ANOMALY":"290.1487","FILE":"3510681","MEAN_MOTION":"15.06394136","COUNTRY_CODE":"US","RCS_SIZE":"LARGE","MEAN_MOTION_DDOT":"0.0000000000000","TLE_LINE1":"1 47637U 21012T   22190.61378628 -.00003129  00000-0 -19132-3 0  9994","ECCENTRICITY":"0.00012390","MEAN_ELEMENT_THEORY":"SGP4","TIME_SYSTEM":"UTC","OBJECT_TYPE":"PAYLOAD","OBJECT_NAME":"STARLINK-2014","OBJECT_ID":"2021-012T","SITE":"AFETR"},{"APOAPSIS":"548.111","REF_FRAME":"TEME","PERIAPSIS":"546.357","CENTER_NAME":"EARTH","REV_AT_EPOCH":"7943","ARG_OF_PERICENTER":"74.5101","GP_ID":"207731485","EPOCH":"2022-07-09T09:53:56.469696","TLE_LINE2":"2 47638  53.0515 228.8620 0001266  74.5101 285.6027 15.06393387 79438","INCLINATION":"53.0515","PERIOD":"95.593","EPHEMERIS_TYPE":"0","MEAN_MOTION_DOT":"-0.00000073","CLASSIFICATION_TYPE":"U","LAUNCH_DATE":"2021-02-16","SEMIMAJOR_AXIS":"6925.369","BSTAR":"0.00001402400000","DECAY_DATE":null,"RA_OF_ASC_NODE":"228.8620","ELEMENT_SET_NO":"999","NORAD_CAT_ID":"47638","MEAN_ANOMALY":"285.6027","FILE":"3510582","MEAN_MOTION":"15.06393387","COUNTRY_CODE":"US","RCS_SIZE":"LARGE","MEAN_MOTION_DDOT":"0.0000000000000","TLE_LINE1":"1 47638U 21012U   22190.41245914 -.00000073  00000-0  14024-4 0  9994","ECCENTRICITY":"0.00012660","MEAN_ELEMENT_THEORY":"SGP4","TIME_SYSTEM":"UTC","OBJECT_TYPE":"PAYLOAD","OBJECT_NAME":"STARLINK-2015","OBJECT_ID":"2021-012U","SITE":"AFETR"},{"INCLINATION":"53.0547","TLE_LINE2":"2 47639  53.0547 302.4758 0001352  78.2710 281.8430 15.06385132 78432","EPOCH":"2022-07-09T17:23:05.246592","EPHEMERIS_TYPE":"0","PERIOD":"95.593","ARG_OF_PERICENTER":"78.2710","GP_ID":"207783230","PERIAPSIS":"546.323","REV_AT_EPOCH":"7843","CENTER_NAME":"EARTH","APOAPSIS":"548.195","REF_FRAME":"TEME","RA_OF_ASC_NODE":"302.4758","BSTAR":"-0.00054012000000","DECAY_DATE":null,"LAUNCH_DATE":"2021-02-16","SEMIMAJOR_AXIS":"6925.394","MEAN_MOTION_DOT":"-0.00008314","CLASSIFICATION_TYPE":"U","MEAN_MOTION_DDOT":"0.0000000000000","RCS_SIZE":"LARGE","TLE_LINE1":"1 47639U 21012V   22190.72436628 -.00008314  00000-0 -54012-3 0  9990","FILE":"3510681","MEAN_ANOMALY":"281.8430","COUNTRY_CODE":"US","MEAN_MOTION":"15.06385132","NORAD_CAT_ID":"47639","ELEMENT_SET_NO":"999","OBJECT_ID":"2021-012V","SITE":"AFETR","OBJECT_TYPE":"PAYLOAD","TIME_SYSTEM":"UTC","OBJECT_NAME":"STARLINK-2016","MEAN_ELEMENT_THEORY":"SGP4","ECCENTRICITY":"0.00013520"},{"GP_ID":"207783480","ARG_OF_PERICENTER":"69.8860","PERIOD":"95.594","EPHEMERIS_TYPE":"0","INCLINATION":"53.0555","TLE_LINE2":"2 47640  53.0555 322.4888 0001540  69.8860 290.2295 15.06376198 78176","EPOCH":"2022-07-09T17:15:07.714656","APOAPSIS":"548.353","REF_FRAME":"TEME","REV_AT_EPOCH":"7817","CENTER_NAME":"EARTH","PERIAPSIS":"546.220","DECAY_DATE":null,"BSTAR":"-0.00096666000000","RA_OF_ASC_NODE":"322.4888","CLASSIFICATION_TYPE":"U","MEAN_MOTION_DOT":"-0.00014641","LAUNCH_DATE":"2021-02-16","SEMIMAJOR_AXIS":"6925.422","MEAN_MOTION":"15.06376198","COUNTRY_CODE":"US","FILE":"3510681","MEAN_ANOMALY":"290.2295","TLE_LINE1":"1 47640U 21012W   22190.71883929 -.00014641  00000-0 -96666-3 0  9992","MEAN_MOTION_DDOT":"0.0000000000000","RCS_SIZE":"LARGE","ELEMENT_SET_NO":"999","NORAD_CAT_ID":"47640","OBJECT_NAME":"STARLINK-2018","OBJECT_TYPE":"PAYLOAD","TIME_SYSTEM":"UTC","SITE":"AFETR","OBJECT_ID":"2021-012W","ECCENTRICITY":"0.00015400","MEAN_ELEMENT_THEORY":"SGP4"},{"COUNTRY_CODE":"US","MEAN_MOTION":"15.06401744","FILE":"3510681","MEAN_ANOMALY":"290.8994","TLE_LINE1":"1 47641U 21012X   22190.53039452 -.00001442  00000-0 -77930-4 0  9996","MEAN_MOTION_DDOT":"0.0000000000000","RCS_SIZE":"LARGE","ELEMENT_SET_NO":"999","NORAD_CAT_ID":"47641","OBJECT_NAME":"STARLINK-2019","OBJECT_TYPE":"PAYLOAD","TIME_SYSTEM":"UTC","OBJECT_ID":"2021-012X","SITE":"AFETR","ECCENTRICITY":"0.00013520","MEAN_ELEMENT_THEORY":"SGP4","GP_ID":"207783732","ARG_OF_PERICENTER":"69.2139","PERIOD":"95.592","EPHEMERIS_TYPE":"0","TLE_LINE2":"2 47641  53.0526 228.3500 0001352  69.2139 290.8994 15.06401744 79454","INCLINATION":"53.0526","EPOCH":"2022-07-09T12:43:46.086528","REF_FRAME":"TEME","APOAPSIS":"548.145","REV_AT_EPOCH":"7945","CENTER_NAME":"EARTH","PERIAPSIS":"546.272","DECAY_DATE":null,"BSTAR":"-0.00007793000000","RA_OF_ASC_NODE":"228.3500","CLASSIFICATION_TYPE":"U","MEAN_MOTION_DOT":"-0.00001442","LAUNCH_DATE":"2021-02-16","SEMIMAJOR_AXIS":"6925.343"},{"MEAN_ELEMENT_THEORY":"SGP4","ECCENTRICITY":"0.00012690","OBJECT_ID":"2021-012Y","SITE":"AFETR","OBJECT_NAME":"STARLINK-2020","OBJECT_TYPE":"PAYLOAD","TIME_SYSTEM":"UTC","NORAD_CAT_ID":"47642","ELEMENT_SET_NO":"999","TLE_LINE1":"1 47642U 21012Y   22190.72481860 -.00005515  00000-0 -35166-3 0  9991","MEAN_MOTION_DDOT":"0.0000000000000","RCS_SIZE":"LARGE","COUNTRY_CODE":"US","MEAN_MOTION":"15.06398100","FILE":"3510681","MEAN_ANOMALY":"268.0682","LAUNCH_DATE":"2021-02-16","SEMIMAJOR_AXIS":"6925.354","CLASSIFICATION_TYPE":"U","MEAN_MOTION_DOT":"-0.00005515","RA_OF_ASC_NODE":"317.4552","DECAY_DATE":null,"BSTAR":"-0.00035166000000","REV_AT_EPOCH":"7823","CENTER_NAME":"EARTH","PERIAPSIS":"546.341","APOAPSIS":"548.098","REF_FRAME":"TEME","EPHEMERIS_TYPE":"0","PERIOD":"95.592","TLE_LINE2":"2 47642  53.0545 317.4552 0001269  92.0452 268.0682 15.06398100 78239","INCLINATION":"53.0545","EPOCH":"2022-07-09T17:23:44.327040","GP_ID":"207783983","ARG_OF_PERICENTER":"92.0452"},{"EPOCH":"2022-07-09T17:44:19.864320","TLE_LINE2":"2 47643  53.0559 302.4166 0001503  68.4047 291.7102 15.06390420 78459","INCLINATION":"53.0559","EPHEMERIS_TYPE":"0","PERIOD":"95.593","ARG_OF_PERICENTER":"68.4047","GP_ID":"207782731","PERIAPSIS":"546.202","CENTER_NAME":"EARTH","REV_AT_EPOCH":"7845","APOAPSIS":"548.284","REF_FRAME":"TEME","RA_OF_ASC_NODE":"302.4166","BSTAR":"-0.00015751000000","DECAY_DATE":null,"SEMIMAJOR_AXIS":"6925.378","LAUNCH_DATE":"2021-02-16","MEAN_MOTION_DOT":"-0.00002626","CLASSIFICATION_TYPE":"U","RCS_SIZE":"LARGE","MEAN_MOTION_DDOT":"0.0000000000000","TLE_LINE1":"1 47643U 21012Z   22190.73911880 -.00002626  00000-0 -15751-3 0  9991","MEAN_ANOMALY":"291.7102","FILE":"3510681","COUNTRY_CODE":"US","MEAN_MOTION":"15.06390420","NORAD_CAT_ID":"47643","ELEMENT_SET_NO":"999","OBJECT_ID":"2021-012Z","SITE":"AFETR","TIME_SYSTEM":"UTC","OBJECT_TYPE":"PAYLOAD","OBJECT_NAME":"STARLINK-2022","MEAN_ELEMENT_THEORY":"SGP4","ECCENTRICITY":"0.00015030"},{"MEAN_ELEMENT_THEORY":"SGP4","ECCENTRICITY":"0.00013300","OBJECT_ID":"2021-012AA","SITE":"AFETR","OBJECT_NAME":"STARLINK-2026","TIME_SYSTEM":"UTC","OBJECT_TYPE":"PAYLOAD","NORAD_CAT_ID":"47644","ELEMENT_SET_NO":"999","TLE_LINE1":"1 47644U 21012AA  22190.75201684 -.00001894  00000-0 -10834-3 0  9991","RCS_SIZE":"LARGE","MEAN_MOTION_DDOT":"0.0000000000000","COUNTRY_CODE":"US","MEAN_MOTION":"15.06391921","MEAN_ANOMALY":"279.9177","FILE":"3510681","SEMIMAJOR_AXIS":"6925.373","LAUNCH_DATE":"2021-02-16","CLASSIFICATION_TYPE":"U","MEAN_MOTION_DOT":"-0.00001894","RA_OF_ASC_NODE":"322.3495","DECAY_DATE":null,"BSTAR":"-0.00010834000000","CENTER_NAME":"EARTH","REV_AT_EPOCH":"7818","PERIAPSIS":"546.317","REF_FRAME":"TEME","APOAPSIS":"548.159","PERIOD":"95.593","EPHEMERIS_TYPE":"0","EPOCH":"2022-07-09T18:02:54.254976","INCLINATION":"53.0567","TLE_LINE2":"2 47644  53.0567 322.3495 0001330  80.1962 279.9177 15.06391921 78187","GP_ID":"207782981","ARG_OF_PERICENTER":"80.1962"},{"TLE_LINE1":"1 47645U 21012AB  22190.70689658 -.00007466  00000-0 -48313-3 0  9992","RCS_SIZE":"LARGE","MEAN_MOTION_DDOT":"0.0000000000000","MEAN_MOTION":"15.06380377","COUNTRY_CODE":"US","MEAN_ANOMALY":"282.1623","FILE":"3510681","NORAD_CAT_ID":"47645","ELEMENT_SET_NO":"999","SITE":"AFETR","OBJECT_ID":"2021-012AB","OBJECT_NAME":"STARLINK-2027","TIME_SYSTEM":"UTC","OBJECT_TYPE":"PAYLOAD","MEAN_ELEMENT_THEORY":"SGP4","ECCENTRICITY":"0.00014340","PERIOD":"95.593","EPHEMERIS_TYPE":"0","EPOCH":"2022-07-09T16:57:55.864512","TLE_LINE2":"2 47645  53.0554 292.7874 0001434  77.9527 282.1623 15.06380377 78568","INCLINATION":"53.0554","GP_ID":"207784232","ARG_OF_PERICENTER":"77.9527","CENTER_NAME":"EARTH","REV_AT_EPOCH":"7856","PERIAPSIS":"546.281","REF_FRAME":"TEME","APOAPSIS":"548.267","RA_OF_ASC_NODE":"292.7874","DECAY_DATE":null,"BSTAR":"-0.00048313000000","LAUNCH_DATE":"2021-02-16","SEMIMAJOR_AXIS":"6925.409","CLASSIFICATION_TYPE":"U","MEAN_MOTION_DOT":"-0.00007466"},{"RCS_SIZE":"LARGE","MEAN_MOTION_DDOT":"0.0000000000000","TLE_LINE1":"1 47646U 21012AC  22190.49448213 -.00004271  00000-0 -26795-3 0  9990","MEAN_ANOMALY":"293.2502","FILE":"3510582","COUNTRY_CODE":"US","MEAN_MOTION":"15.06405580","NORAD_CAT_ID":"47646","ELEMENT_SET_NO":"999","SITE":"AFETR","OBJECT_ID":"2021-012AC","TIME_SYSTEM":"UTC","OBJECT_TYPE":"PAYLOAD","OBJECT_NAME":"STARLINK-2028","MEAN_ELEMENT_THEORY":"SGP4","ECCENTRICITY":"0.00015380","EPOCH":"2022-07-09T11:52:03.256032","INCLINATION":"53.0543","TLE_LINE2":"2 47646  53.0543 258.7456 0001538  66.8649 293.2502 15.06405580 79027","PERIOD":"95.592","EPHEMERIS_TYPE":"0","ARG_OF_PERICENTER":"66.8649","GP_ID":"207731486","PERIAPSIS":"546.131","CENTER_NAME":"EARTH","REV_AT_EPOCH":"7902","REF_FRAME":"TEME","APOAPSIS":"548.262","RA_OF_ASC_NODE":"258.7456","BSTAR":"-0.00026795000000","DECAY_DATE":null,"LAUNCH_DATE":"2021-02-16","SEMIMAJOR_AXIS":"6925.331","MEAN_MOTION_DOT":"-0.00004271","CLASSIFICATION_TYPE":"U"}];
